OBJECT_NAME,OBJECT_ID,EPOCH,MEAN_MOTION,ECCENTRICITY,INCLINATION,RA_OF_ASC_NODE,ARG_OF_PERICENTER,MEAN_ANOMALY,EPHEMERIS_TYPE,CLASSIFICATION_TYPE,NORAD_CAT_ID,ELEMENT_SET_NO,REV_AT_EPOCH,BSTAR,MEAN_MOTION_DOT,MEAN_MOTION_DDOT
GONETS-M 19,2020-068C,2026-06-18T23:59:53.101824,12.42892220,.00141878,82.4966,345.9420,46.0926,314.1323,0,U,46488,999,25947,.4615764E-5,.11E-6,0
DEKART,2020-068H,2026-06-18T23:08:24.717408,15.37382191,.00069824,97.8739,179.3615,278.2123,81.8328,0,U,46493,999,31604,.25878951E-3,.94E-4,0
NORBI,2020-068J,2026-06-18T23:11:39.557184,15.48514668,.00049976,97.8622,186.0880,237.4825,122.5942,0,U,46494,999,31648,.33195385E-3,.17581E-3,0
SALSAT,2020-068K,2026-06-18T23:26:50.723808,15.29820569,.00079502,97.8853,173.1506,300.6759,59.3696,0,U,46495,999,31563,.21049844E-3,.5999E-4,0
ICEYE-X6,2020-068M,2026-06-18T22:05:34.173024,15.04533630,.00088616,98.0980,163.6747,86.0689,274.1548,0,U,46497,999,31349,.18300962E-3,.2499E-4,0
NETSAT-4,2020-068U,2026-06-18T22:32:59.425152,15.43911381,.0003638,97.8604,178.3212,330.0915,30.0123,0,U,46504,999,31604,.2977972E-3,.13444E-3,0
NETSAT-3,2020-068V,2026-06-18T22:43:57.736992,15.42729278,.00039696,97.8651,176.5434,354.3886,5.7315,0,U,46505,999,31595,.3324197E-3,.14435E-3,0
NETSAT-1,2020-068W,2026-06-18T10:32:51.350208,15.34667272,.0004889,97.8747,170.3121,28.7816,331.3694,0,U,46506,999,31549,.29212E-3,.9731E-4,0
NETSAT-2,2020-068X,2026-06-18T23:27:10.618272,15.46061817,.00032901,97.8613,178.2623,20.9821,339.1561,0,U,46507,999,31601,.36479759E-3,.17754E-3,0
TIANQI-6,2020-076D,2026-06-18T22:14:18.069792,15.07192137,.00102035,35.0001,37.7889,190.4517,169.5982,0,U,46810,999,30884,.18277439E-3,.2782E-4,0
KSM1-C,2020-081B,2026-06-18T23:46:58.555200,15.26762883,.00033313,36.8961,47.8057,259.9100,100.1274,0,U,46906,999,30944,.24432504E-3,.6488E-4,0
KSM1-D,2020-081C,2026-06-18T23:52:52.154976,15.24740464,.00051652,36.8968,56.8262,273.7671,86.2487,0,U,46907,999,30937,.23448267E-3,.585E-4,0
KSM1-A,2020-081H,2026-06-18T23:52:56.696160,15.25981337,.00044165,36.8974,50.1871,314.1943,45.8443,0,U,46912,999,30945,.24879866E-3,.6452E-4,0
R2,2020-081J,2026-06-18T22:50:19.624128,15.25447511,.00091213,36.8985,50.4438,296.0769,63.9041,0,U,46913,999,31225,.23034969E-3,.5874E-4,0
KSM1-B,2020-081K,2026-06-18T23:58:12.532224,15.24528431,.00068158,36.9024,57.4125,291.6644,68.3379,0,U,46914,999,31246,.21585306E-3,.5344E-4,0
GONETS-M 20,2020-091A,2026-06-18T22:30:40.088736,12.42893725,.00212892,82.5053,301.3471,174.0931,186.0403,0,U,47227,999,25129,.37434108E-3,.62E-6,0
GONETS-M 21,2020-091B,2026-06-18T21:53:02.466240,12.42886820,.00148763,82.4978,300.0693,187.0421,173.0452,0,U,47228,999,25128,.36029573E-3,.6E-6,0
GONETS-M 22,2020-091C,2026-06-18T23:10:12.580032,12.42892756,.00222138,82.5035,300.9355,169.5018,190.6530,0,U,47229,999,25124,.31038886E-4,.14E-6,0
CUBEL,2021-006AM,2026-06-18T09:29:26.117088,15.41271823,.0007338,97.2326,219.9679,158.0430,202.1133,0,U,47448,999,29994,.37002E-3,.15337E-3,0
ARKTIKA-M 1,2021-016A,2026-06-17T11:46:36.471360,2.00622504,.72885287,63.2922,57.5948,269.9420,14.6012,0,U,47719,999,3879,0,-.21E-5,0
STARLINK-2342,2021-021Z,2026-06-19T00:00:02.000160,15.81619874,.00017706,53.1544,138.9846,134.2347,176.6177,0,U,47883,999,595,.44281583E-3,.9072E-3,0
GRUS-1B,2021-022C,2026-06-18T23:30:27.279360,14.98887628,.00153574,97.5400,53.1208,321.4439,38.5687,0,U,47934,999,28616,.25864385E-4,.256E-5,0
UNISAT-7,2021-022P,2026-06-18T23:28:39.605952,15.40506438,.0011019,97.3885,74.9211,73.3338,286.9117,0,U,47945,999,29013,.26978874E-3,.10884E-3,0
GLOBAL-9,2021-023G,2026-06-18T13:05:01.779936,15.46654442,.0004632,44.9804,242.8949,324.7391,35.3192,0,U,47971,999,29515,.33668E-3,.16855E-3,0
AII-BRAVO,2021-034C,2026-06-18T22:49:59.053152,15.03494033,.00040859,97.5627,224.8219,250.2261,109.8524,0,U,48270,999,27988,.23834744E-3,.319E-4,0
TYVAK-182A,2021-034D,2026-06-18T17:24:33.725376,15.06174649,.00049969,97.5710,228.6160,335.9370,24.1623,0,U,48271,999,28006,.26864852E-3,.3873E-4,0
CSS (TIANHE),2021-035A,2026-06-18T19:58:55.880544,15.60871130,.00073677,41.4697,311.9880,91.6871,268.4812,0,U,48274,999,29342,.20869421E-3,.17666E-3,0
TYVAK-0130,2021-041BF,2026-06-18T21:03:12.197664,15.27577427,.00102533,52.9942,18.2375,167.2170,192.9090,0,U,48606,999,28064,.18709529E-3,.4769E-4,0
