GONETS-M 19             
1 46488U 20068C   26169.99992016  .00000011  00000+0  46158-5 0  9995
2 46488  82.4966 345.9420 0014187  46.0926 314.1323 12.42892220259478
DEKART                  
1 46493U 20068H   26169.96417497  .00009400  00000+0  25879-3 0  9999
2 46493  97.8739 179.3615 0006982 278.2123  81.8328 15.37382191316047
NORBI                   
1 46494U 20068J   26169.96643006  .00017581  00000+0  33195-3 0  9996
2 46494  97.8622 186.0880 0004997 237.4825 122.5942 15.48514668316489
SALSAT                  
1 46495U 20068K   26169.97697597  .00005999  00000+0  21050-3 0  9999
2 46495  97.8853 173.1506 0007950 300.6759  59.3696 15.29820569315637
ICEYE-X6                
1 46497U 20068M   26169.92053441  .00002499  00000+0  18301-3 0  9997
2 46497  98.0980 163.6747 0008861  86.0689 274.1548 15.04533630313491
NETSAT-4                
1 46504U 20068U   26169.93957668  .00013444  00000+0  29780-3 0  9996
2 46504  97.8604 178.3212 0003638 330.0915  30.0123 15.43911381316049
NETSAT-3                
1 46505U 20068V   26169.94719603  .00014435  00000+0  33242-3 0  9992
2 46505  97.8651 176.5434 0003969 354.3886   5.7315 15.42729278315953
NETSAT-1                
1 46506U 20068W   26169.43948322  .00009731  00000+0  29212-3 0  9994
2 46506  97.8747 170.3121 0004889  28.7816 331.3694 15.34667272315495
NETSAT-2                
1 46507U 20068X   26169.97720623  .00017754  00000+0  36480-3 0  9995
2 46507  97.8613 178.2623 0003290  20.9821 339.1561 15.46061817316011
TIANQI-6                
1 46810U 20076D   26169.92659803  .00002782  00000+0  18277-3 0  9996
2 46810  35.0001  37.7889 0010203 190.4517 169.5982 15.07192137308844
KSM1-C                  
1 46906U 20081B   26169.99095550  .00006488  00000+0  24433-3 0  9996
2 46906  36.8961  47.8057 0003331 259.9100 100.1274 15.26762883309440
KSM1-D                  
1 46907U 20081C   26169.99504809  .00005850  00000+0  23448-3 0  9996
2 46907  36.8968  56.8262 0005165 273.7671  86.2487 15.24740464309371
KSM1-A                  
1 46912U 20081H   26169.99510065  .00006452  00000+0  24880-3 0  9993
2 46912  36.8974  50.1871 0004416 314.1943  45.8443 15.25981337309456
R2                      
1 46913U 20081J   26169.95161602  .00005874  00000+0  23035-3 0  9997
2 46913  36.8985  50.4438 0009121 296.0769  63.9041 15.25447511312251
KSM1-B                  
1 46914U 20081K   26169.99875616  .00005344  00000+0  21585-3 0  9999
2 46914  36.9024  57.4125 0006815 291.6644  68.3379 15.24528431312463
GONETS-M 20             
1 47227U 20091A   26169.93796399  .00000062  00000+0  37434-3 0  9994
2 47227  82.5053 301.3471 0021289 174.0931 186.0403 12.42893725251297
GONETS-M 21             
1 47228U 20091B   26169.91183410  .00000060  00000+0  36030-3 0  9996
2 47228  82.4978 300.0693 0014876 187.0421 173.0452 12.42886820251284
GONETS-M 22             
1 47229U 20091C   26169.96542338  .00000014  00000+0  31039-4 0  9994
2 47229  82.5035 300.9355 0022213 169.5018 190.6530 12.42892756251248
CUBEL                   
1 47448U 21006AM  26169.39544117  .00015337  00000+0  37002-3 0  9997
2 47448  97.2326 219.9679 0007338 158.0430 202.1133 15.41271823299942
ARKTIKA-M 1             
1 47719U 21016A   26168.49069990 -.00000210  00000+0  00000+0 0  9999
2 47719  63.2922  57.5948 7288528 269.9420  14.6012  2.00622504 38796
STARLINK-2342           
1 47883U 21021Z   26170.00002315  .00090720  00000+0  44282-3 0  9993
2 47883  53.1544 138.9846 0001770 134.2347 176.6177 15.81619874  5956
GRUS-1B                 
1 47934U 21022C   26169.97948240  .00000256  00000+0  25864-4 0  9992
2 47934  97.5400  53.1208 0015357 321.4439  38.5687 14.98887628286161
UNISAT-7                
1 47945U 21022P   26169.97823618  .00010884  00000+0  26979-3 0  9990
2 47945  97.3885  74.9211 0011019  73.3338 286.9117 15.40506438290139
GLOBAL-9                
1 47971U 21023G   26169.54515949  .00016855  00000+0  33668-3 0  9995
2 47971  44.9804 242.8949 0004632 324.7391  35.3192 15.46654442295157
AII-BRAVO               
1 48270U 21034C   26169.95137793  .00003190  00000+0  23835-3 0  9995
2 48270  97.5627 224.8219 0004085 250.2261 109.8524 15.03494033279887
TYVAK-182A              
1 48271U 21034D   26169.72539034  .00003873  00000+0  26865-3 0  9999
2 48271  97.5710 228.6160 0004996 335.9370  24.1623 15.06174649280063
CSS (TIANHE)            
1 48274U 21035A   26169.83259121  .00017666  00000+0  20869-3 0  9994
2 48274  41.4697 311.9880 0007367  91.6871 268.4812 15.60871130293426
TYVAK-0130              
1 48606U 21041BF  26169.87722451  .00004769  00000+0  18710-3 0  9997
2 48606  52.9942  18.2375 0010253 167.2170 192.9090 15.27577427280645
